ONEWEB-0597             
1 54663U 22166X   26167.22791340  .00000139  00000+0  30422-3 0  9997
2 54663  87.9253 244.1783 0002036  95.3622 264.7744 13.21827215171417
ONEWEB-0600             
1 54664U 22166Y   26167.20939693  .00000094  00000+0  19598-3 0  9992
2 54664  87.9254 244.1734 0001824  96.6184 263.5158 13.21824861171382
ONEWEB-0601             
1 54665U 22166Z   26167.20099287  .00000073  00000+0  14558-3 0  9997
2 54665  87.9253 244.1913 0002097  92.0230 268.1144 13.21825876171570
ONEWEB-0602             
1 54666U 22166AA  26167.24220596  .00000111  00000+0  23613-3 0  9996
2 54666  87.9253 244.1890 0001773  95.3148 264.8189 13.21826722171426
ONEWEB-0603             
1 54667U 22166AB  26167.24810267  .00000107  00000+0  22688-3 0  9993
2 54667  87.9264 244.1448 0001996  96.3748 263.7613 13.21826421171350
ONEWEB-0604             
1 54668U 22166AC  26167.23631361  .00000076  00000+0  15151-3 0  9991
2 54668  87.9263 244.1624 0002013 101.5963 258.5397 13.21827956171316
ONEWEB-0605             
1 54669U 22166AD  26167.22960053  .00000118  00000+0  25465-3 0  9990
2 54669  87.9254 244.1774 0002539  90.1612 269.9813 13.21826607171388
ONEWEB-0606             
1 54670U 22166AE  26167.25146436  .00000128  00000+0  27770-3 0  9998
2 54670  87.9256 244.1857 0002018 104.0217 256.1141 13.21827136171449
ONEWEB-0607             
1 54671U 22166AF  26167.29350552  .00000016  00000+0  63355-5 0  9996
2 54671  87.9261 244.1480 0001937  94.5325 265.6030 13.21824432171426
ONEWEB-0608             
1 54672U 22166AG  26167.22453497  .00000136  00000+0  29712-3 0  9992
2 54672  87.9264 244.1584 0002277  86.5454 273.5941 13.21828085171424
ONEWEB-0610             
1 54673U 22166AH  26167.28004809 -.00000001  00000+0 -34619-4 0  9994
2 54673  87.9254 244.1618 0002084  81.4181 278.7190 13.21824263171336
ONEWEB-0611             
1 54674U 22166AJ  26167.27330660 -.00000008  00000+0 -51375-4 0  9996
2 54674  87.9254 244.1592 0002037 102.8529 257.2833 13.21827677171327
ONEWEB-0612             
1 54675U 22166AK  26167.21108929  .00000057  00000+0  10580-3 0  9996
2 54675  87.9266 244.1668 0002052  94.2127 265.9241 13.21825334171305
ONEWEB-0615             
1 54676U 22166AL  26167.26660508  .00000003  00000+0 -25237-4 0  9996
2 54676  87.9257 244.1706 0001859 105.5385 254.5955 13.21826293171328
ONEWEB-0655             
1 54677U 22166AM  26167.24305350  .00000048  00000+0  85013-4 0  9992
2 54677  87.9256 244.1771 0001826  94.9950 265.1392 13.21827146171313
ONEWEB-0659             
1 54678U 22166AN  26167.18417367  .00000070  00000+0  13712-3 0  9999
2 54678  87.9253 244.1881 0002083 100.9144 259.2225 13.21828294171394
ONEWEB-0685             
1 54679U 22166AP  26167.18427841  .00000072  00000+0  14179-3 0  9998
2 54679  87.9251 244.1803 0002039  88.5744 271.5624 13.21847676171288
ONEWEB-0712             
1 54680U 22166AQ  26167.22405484  .00000026  00000+0  34335-4 0  9990
2 54680  87.9100 228.9659 0001557  92.1652 267.9658 13.16593457171932
ONEWEB-0714             
1 54681U 22166AR  26167.18920941  .00000016  00000+0  80031-5 0  9990
2 54681  87.9255 244.1767 0001696  98.7870 261.3456 13.21824825171400
ONEWEB-0532             
1 55140U 23004A   26167.27357315 -.00000006  00000+0 -49288-4 0  9991
2 55140  87.9134   6.0465 0002211  87.9610 272.1775 13.17820878167467
ONEWEB-0533             
1 55141U 23004B   26167.23760817 -.00000316  00000+0 -91424-3 0  9995
2 55141  87.8943 350.8595 0001816  84.3252 275.8083 13.12444233167938
ONEWEB-0541             
1 55142U 23004C   26167.03784702  .00000491  00000+0  13494-2 0  9995
2 55142  87.8896  21.2868 0001871  90.3461 269.7881 13.11420117165792
ONEWEB-0543             
1 55143U 23004D   26167.17747721  .00000022  00000+0  24303-4 0  9994
2 55143  87.9160 335.6703 0001626  92.1344 267.9975 13.18685767169560
ONEWEB-0544             
1 55144U 23004E   26167.17073438  .00000057  00000+0  11287-3 0  9996
2 55144  87.9160 335.6714 0001724  98.6120 261.5208 13.18686029169566
ONEWEB-0560             
1 55145U 23004F   26167.16398876 -.00000005  00000+0 -45859-4 0  9990
2 55145  87.9162 335.6622 0001625  99.4199 260.7117 13.18687339169578
ONEWEB-0565             
1 55146U 23004G   26167.15724687 -.00000014  00000+0 -67786-4 0  9996
2 55146  87.9152 335.6916 0002020 104.0225 256.1131 13.18685295169560
ONEWEB-0567             
1 55147U 23004H   26167.22638162 -.00000026  00000+0 -98488-4 0  9993
2 55147  87.9160 335.6620 0001892 104.4255 255.7087 13.18685852169570
ONEWEB-0569             
1 55148U 23004J   26167.32252576  .00000165  00000+0  41570-3 0  9997
2 55148  87.8960 320.3916 0001607 126.3347 233.7930 13.13470628170063
ONEWEB-0570             
1 55149U 23004K   26167.21794059  .00000006  00000+0 -17074-4 0  9991
2 55149  87.9158 335.6615 0002239  94.7050 265.4338 13.18684365169567
ONEWEB-0571             
1 55150U 23004L   26167.21120060 -.00000029  00000+0 -10606-3 0  9997
2 55150  87.9158 335.6622 0002260 127.3886 232.7452 13.18687689169578
