OBJECT_NAME,OBJECT_ID,EPOCH,MEAN_MOTION,ECCENTRICITY,INCLINATION,RA_OF_ASC_NODE,ARG_OF_PERICENTER,MEAN_ANOMALY,EPHEMERIS_TYPE,CLASSIFICATION_TYPE,NORAD_CAT_ID,ELEMENT_SET_NO,REV_AT_EPOCH,BSTAR,MEAN_MOTION_DOT,MEAN_MOTION_DDOT
ONEWEB-0597,2022-166X,2026-06-16T05:28:11.717760,13.21827215,.00020369,87.9253,244.1783,95.3622,264.7744,0,U,54663,999,17141,.30422193E-3,.139E-5,0
ONEWEB-0600,2022-166Y,2026-06-16T05:01:31.894752,13.21824861,.0001824,87.9254,244.1734,96.6184,263.5158,0,U,54664,999,17138,.19598412E-3,.94E-6,0
ONEWEB-0601,2022-166Z,2026-06-16T04:49:25.783968,13.21825876,.00020975,87.9253,244.1913,92.0230,268.1144,0,U,54665,999,17157,.14557818E-3,.73E-6,0
ONEWEB-0602,2022-166AA,2026-06-16T05:48:46.594944,13.21826722,.00017735,87.9253,244.1890,95.3148,264.8189,0,U,54666,999,17142,.23613337E-3,.111E-5,0
ONEWEB-0603,2022-166AB,2026-06-16T05:57:16.070688,13.21826421,.00019966,87.9264,244.1448,96.3748,263.7613,0,U,54667,999,17135,.22688312E-3,.107E-5,0
ONEWEB-0604,2022-166AC,2026-06-16T05:40:17.495904,13.21827956,.00020131,87.9263,244.1624,101.5963,258.5397,0,U,54668,999,17131,.15151388E-3,.76E-6,0
ONEWEB-0605,2022-166AD,2026-06-16T05:30:37.485792,13.21826607,.00025393,87.9254,244.1774,90.1612,269.9813,0,U,54669,999,17138,.25465196E-3,.118E-5,0
ONEWEB-0606,2022-166AE,2026-06-16T06:02:06.520704,13.21827136,.00020188,87.9256,244.1857,104.0217,256.1141,0,U,54670,999,17144,.2777013E-3,.128E-5,0
ONEWEB-0607,2022-166AF,2026-06-16T07:02:38.876928,13.21824432,.00019376,87.9261,244.1480,94.5325,265.6030,0,U,54671,999,17142,.6335474E-5,.16E-6,0
ONEWEB-0608,2022-166AG,2026-06-16T05:23:19.821408,13.21828085,.0002277,87.9264,244.1584,86.5454,273.5941,0,U,54672,999,17142,.29711905E-3,.136E-5,0
ONEWEB-0610,2022-166AH,2026-06-16T06:43:16.154976,13.21824263,.00020845,87.9254,244.1618,81.4181,278.7190,0,U,54673,999,17133,-.34618892E-4,-.1E-7,0
ONEWEB-0611,2022-166AJ,2026-06-16T06:33:33.690240,13.21827677,.00020371,87.9254,244.1592,102.8529,257.2833,0,U,54674,999,17132,-.51375426E-4,-.8E-7,0
ONEWEB-0612,2022-166AK,2026-06-16T05:03:58.114656,13.21825334,.00020522,87.9266,244.1668,94.2127,265.9241,0,U,54675,999,17130,.105798E-3,.57E-6,0
ONEWEB-0615,2022-166AL,2026-06-16T06:23:54.678912,13.21826293,.00018599,87.9257,244.1706,105.5385,254.5955,0,U,54676,999,17132,-.25237228E-4,.3E-7,0
ONEWEB-0655,2022-166AM,2026-06-16T05:49:59.822400,13.21827146,.00018264,87.9256,244.1771,94.9950,265.1392,0,U,54677,999,17131,.85013461E-4,.48E-6,0
ONEWEB-0659,2022-166AN,2026-06-16T04:25:12.605088,13.21828294,.00020838,87.9253,244.1881,100.9144,259.2225,0,U,54678,999,17139,.13711721E-3,.7E-6,0
ONEWEB-0685,2022-166AP,2026-06-16T04:25:21.654624,13.21847676,.00020398,87.9251,244.1803,88.5744,271.5624,0,U,54679,999,17128,.14178967E-3,.72E-6,0
ONEWEB-0712,2022-166AQ,2026-06-16T05:22:38.338176,13.16593457,.00015574,87.9100,228.9659,92.1652,267.9658,0,U,54680,999,17193,.34334885E-4,.26E-6,0
ONEWEB-0714,2022-166AR,2026-06-16T04:32:27.693024,13.21824825,.00016966,87.9255,244.1767,98.7870,261.3456,0,U,54681,999,17140,.8003052E-5,.16E-6,0
ONEWEB-0532,2023-004A,2026-06-16T06:33:56.720160,13.17820878,.00022114,87.9134,6.0465,87.9610,272.1775,0,U,55140,999,16746,-.49287747E-4,-.6E-7,0
ONEWEB-0533,2023-004B,2026-06-16T05:42:09.345888,13.12444233,.00018167,87.8943,350.8595,84.3252,275.8083,0,U,55141,999,16793,-.91423832E-3,-.316E-5,0
ONEWEB-0541,2023-004C,2026-06-16T00:54:29.982528,13.11420117,.00018715,87.8896,21.2868,90.3461,269.7881,0,U,55142,999,16579,.13494146E-2,.491E-5,0
ONEWEB-0543,2023-004D,2026-06-16T04:15:34.030944,13.18685767,.00016265,87.9160,335.6703,92.1344,267.9975,0,U,55143,999,16956,.24303329E-4,.22E-6,0
ONEWEB-0544,2023-004E,2026-06-16T04:05:51.450432,13.18686029,.00017249,87.9160,335.6714,98.6120,261.5208,0,U,55144,999,16956,.11287371E-3,.57E-6,0
ONEWEB-0560,2023-004F,2026-06-16T03:56:08.628864,13.18687339,.00016253,87.9162,335.6622,99.4199,260.7117,0,U,55145,999,16957,-.45858836E-4,-.5E-7,0
ONEWEB-0565,2023-004G,2026-06-16T03:46:26.129568,13.18685295,.00020207,87.9152,335.6916,104.0225,256.1131,0,U,55146,999,16956,-.6778624E-4,-.14E-6,0
ONEWEB-0567,2023-004H,2026-06-16T05:25:59.371968,13.18685852,.00018921,87.9160,335.6620,104.4255,255.7087,0,U,55147,999,16957,-.98488303E-4,-.26E-6,0
ONEWEB-0569,2023-004J,2026-06-16T07:44:26.225664,13.13470628,.0001607,87.8960,320.3916,126.3347,233.7930,0,U,55148,999,17006,.41570192E-3,.165E-5,0
ONEWEB-0570,2023-004K,2026-06-16T05:13:50.066976,13.18684365,.00022397,87.9158,335.6615,94.7050,265.4338,0,U,55149,999,16956,-.17073728E-4,.6E-7,0
ONEWEB-0571,2023-004L,2026-06-16T05:04:07.731840,13.18687689,.00022601,87.9158,335.6622,127.3886,232.7452,0,U,55150,999,16957,-.10605911E-3,-.29E-6,0
